#aV2019  1  8  0  0  0.00000000     288 DD+AD WGS84 FIT  NGA
## 2035 172800.00000000   300.00000000 58491 0.0000000000000
+   31     1  2  3  5  6  7  8  9 10 11 12 13 14 15 16 17 18
+         19 20 21 22 23 24 25 26 27 28 29 30 31 32  0  0  0
+          0  0  0  0  0  0  0  0  0  0  0  0  0  0  0  0  0
+          0  0  0  0  0  0  0  0  0  0  0  0  0  0  0  0  0
+          0  0  0  0  0  0  0  0  0  0  0  0  0  0  0  0  0
++         2  2  2  2  2  2  2  2  2  2  2  2  2  2  2  2  2
++         2  2  2  2  2  2  2  2  2  2  2  2  2  2  0  0  0
++         0  0  0  0  0  0  0  0  0  0  0  0  0  0  0  0  0
++         0  0  0  0  0  0  0  0  0  0  0  0  0  0  0  0  0
++         0  0  0  0  0  0  0  0  0  0  0  0  0  0  0  0  0
%c cc cc ccc ccc cccc cccc cccc cccc ccccc ccccc ccccc ccccc
%c cc cc ccc ccc cccc cccc cccc cccc ccccc ccccc ccccc ccccc
%f  0.0000000  0.000000000  0.00000000000  0.000000000000000
%f  0.0000000  0.000000000  0.00000000000  0.000000000000000
%i    0    0    0    0      0      0      0      0         0
%i    0    0    0    0      0      0      0      0         0
/*      NGA, ST. LOUIS,MO.                                  
/*   EPHEMERIS COMPUTED FROM 2 DAYS OF DATA                 
/*   EPOCHA v3 SMOOTHER                                     
/*   G1762 IERS2010 SATAF SATAPC                            
*  2019  1  8 21 30  0.00000000
P  1 -16271.367177 -13436.637277 -16483.701878   -142.136483                    
V  1  20463.367533   1329.278635 -21205.132746     -0.062982                    
P  2  -7394.097944  14736.924171  21384.776177   -107.929204                    
V  2 -25749.340655  -2427.916148  -7638.641496     -0.101460                    
P  3 -13327.292813 -22418.334932   5178.262931    175.871847                    
V  3   -124.034064  -7117.424416 -30835.274485      0.026571                    
P  5     70.361272  22959.819960  13056.066466      0.737552                    
V  5  -9394.007801 -14283.020420  25137.007453      0.001456                    
P  6 -20285.712838   7941.290241  15251.666641    300.718044                    
V  6 -18903.019042  -4050.927470 -23070.145681     -0.074607                    
P  7 -25644.599955  -6695.625096   4276.929027     55.318985                    
V  7   5363.325901  -1742.525770  30754.550280     -0.070735                    
P  8   1712.049538 -20925.722511 -16106.595973   -128.396444                    
V  8  13708.277115 -15483.202690  21682.570981     -0.013106                    
P  9 -16286.789877  -2802.935851  20747.170196    474.041230                    
V  9  15013.915747 -21831.060309   8807.063422     -0.044692                    
P 10  14838.714679  -3688.086003 -21681.872924    138.840983                    
V 10  10629.199029  25497.920023   2744.139343     -0.062698                    
P 11 -10723.509800 -13521.457252 -20691.394791   -677.991806                    
V 11  23811.980780  -8757.313776  -7027.348904      0.051986                    
P 12  10190.587915  24492.331970   2460.373484    277.935831                    
V 12   -711.904657   3783.610431 -31953.315934     -0.030648                    
P 13 -10115.558630  21762.391661 -11463.392838    -78.967930                    
V 13 -11601.292480   8774.372807  27206.301135      0.012505                    
P 14  18845.252449 -18330.986420  -2712.841812    -93.458144                    
V 14   -304.140828   4855.920573 -31609.007190      0.005866                    
P 15   3170.543877  19740.742138 -17547.179068   -333.031403                    
V 15 -13690.410704  17445.468220  17800.315168      0.015455                    
P 16   1732.141693 -22745.428007  13063.307783    -11.546639                    
V 16   7142.429202  15540.503285  26203.144075     -0.023195                    
P 17 -20309.661843  12157.939076 -11531.664550     -7.435798                    
V 17   8350.925495 -12951.817058 -27495.837331      0.052064                    
P 18  -5622.514975 -15603.667555 -21250.179366     13.849221                    
V 18  25859.160050   1402.928304  -7911.720227      0.037509                    
P 19 -19599.173146  17729.460139  -3463.291818   -365.387515                    
V 19   1240.606462  -4323.400583 -31734.120081      0.039696                    
P 20  18752.220440   5778.142127 -18075.167955    520.905266                    
V 20   9544.127351  20767.904989  16513.990005      0.004159                    
P 21  26197.959613   3659.754466   2504.937152   -272.638278                    
V 21  -2458.589659   3115.174921  31298.782918      0.068927                    
P 22 -10290.760220 -24377.362109  -2327.403015   -618.246981                    
V 22   4892.292430   1170.490498 -30766.326080     -0.088045                    
P 23  -9894.583670 -12738.182938  21358.936664   -201.116512                    
V 23  16254.752875 -20985.769865  -5469.701731      0.011534                    
P 24  11981.666211  14739.092342 -18834.434475    -60.541614                    
V 24 -23621.771110   -352.053785 -15096.891453     -0.004993                    
P 25  16156.807217  17319.209930  12083.934340   -703.119758                    
V 25   4206.409717  15075.189040 -26556.914018     -0.054468                    
P 26   7808.226794 -16278.166906  19417.179883     90.959310                    
V 26  11430.371485  21999.892327  14005.494691      0.106609                    
P 27  10298.025935 -22911.832305  -8259.751486    -45.704872                    
V 27   8122.947692  -6940.397262  29954.534920     -0.064411                    
P 28 -14712.124761    878.751184 -21471.642784    761.326717                    
V 28  -8383.195581 -27453.888690   4574.670476      0.012455                    
P 29  13400.562751   6721.823749  21903.077809    297.589324                    
V 29 -17942.471089  21225.877197   4460.105138     -0.084034                    
P 30 -25647.935733    845.368752  -7170.755796    -32.771057                    
V 30  -8447.857948  -4586.992525  29439.678092     -0.060758                    
P 31  18384.131841  -9194.488247  17071.686803     67.133467                    
V 31  20996.794621   4778.900107 -19616.368788     -0.026382                    
P 32  19731.038574 -14515.380896 -10101.805795   -283.445757                    
V 32  -5559.598497  11978.595418 -28064.652159      0.168437                    
EOF
